STARLINK-36360
1 68402U 26063Y   26092.75002314 -.01885974  10776-2 -35609-2 0  9990
2 68402  97.2811 233.5611 0001494  76.7215 117.4227 16.00951512  2328
